[{"OBJECT_NAME":"STARLINK-31871","OBJECT_ID":"2024-084V","EPOCH":"2026-03-09T07:03:35.020512","MEAN_MOTION":15.27566683,"ECCENTRICITY":4.782e-5,"INCLINATION":43.0001,"RA_OF_ASC_NODE":43.9358,"ARG_OF_PERICENTER":237.1288,"MEAN_ANOMALY":122.9518,"EPHEMERIS_TYPE":0,"CLASSIFICATION_TYPE":"U","NORAD_CAT_ID":59673,"ELEMENT_SET_NO":999,"REV_AT_EPOCH":10431,"BSTAR":-6.424609e-6,"MEAN_MOTION_DOT":-4.38e-6,"MEAN_MOTION_DDOT":0},{"OBJECT_NAME":"ELECTRON KICK STAGE R\/B","OBJECT_ID":"2024-077D","EPOCH":"2026-03-09T23:22:03.772128","MEAN_MOTION":14.57371822,"ECCENTRICITY":0.03475139,"INCLINATION":97.3266,"RA_OF_ASC_NODE":78.5056,"ARG_OF_PERICENTER":202.0113,"MEAN_ANOMALY":156.5853,"EPHEMERIS_TYPE":0,"CLASSIFICATION_TYPE":"U","NORAD_CAT_ID":59590,"ELEMENT_SET_NO":999,"REV_AT_EPOCH":9944,"BSTAR":0.00037103128,"MEAN_MOTION_DOT":3.845e-5,"MEAN_MOTION_DDOT":0}]
